NORAD_CAT_ID,OBJECT_NAME,OBJECT_TYPE,EPOCH,MEAN_MOTION,ECCENTRICITY,INCLINATION,RA_OF_ASC_NODE,ARG_OF_PERICENTER,MEAN_ANOMALY,BSTAR,MEAN_MOTION_DOT,MEAN_MOTION_DDOT,TLE_LINE0,TLE_LINE1,TLE_LINE2,SEMIMAJOR_AXIS,PERIOD,APOGEE,PERIGEE,DECAYED
50181.0,STARLINK-3285,PAYLOAD,2023-07-09 17:49:37,15.0884081,8.42e-05,53.2182,301.3503,84.5628,275.546,9.8963e-06,-1.3e-06,0.0,0 STARLINK-3285,1 50181U 21125AB  23190.74279323 -.00000130  00000-0  98963-5 0  9993,2 50181  53.2182 301.3503 0000842  84.5628 275.5460 15.08840810 89089,6917.878,95.438,540.325,539.16,0.0
50181.0,STARLINK-3285,PAYLOAD,2023-07-11 00:01:56,15.08839037,8.12e-05,53.2181,295.7007,87.7434,272.3651,0.00010178,1.332e-05,0.0,0 STARLINK-3285,1 50181U 21125AB  23192.00135411  .00001332  00000-0  10178-3 0  9997,2 50181  53.2181 295.7007 0000812  87.7434 272.3651 15.08839037 89277,6917.883,95.438,540.31,539.187,0.0
50181.0,STARLINK-3285,PAYLOAD,2023-07-12 12:35:48,15.08849154,9.69e-05,53.2192,288.8623,86.4567,273.6536,9.7185e-05,1.26e-05,0.0,0 STARLINK-3285,1 50181U 21125AB  23193.52486807  .00001260  00000-0  97185-4 0  9997,2 50181  53.2192 288.8623 0000969  86.4567 273.6536 15.08849154 89505,6917.852,95.437,540.388,539.047,0.0
50181.0,STARLINK-3285,PAYLOAD,2023-07-13 12:26:36,15.08841567,0.0001093,53.2182,284.4035,79.1363,280.9752,-6.4559e-05,-1.315e-05,0.0,0 STARLINK-3285,1 50181U 21125AB  23194.51847639 -.00001315  00000-0 -64559-4 0  9993,2 50181  53.2182 284.4035 0001093  79.1363 280.9752 15.08841567 89652,6917.876,95.437,540.497,538.984,0.0
50181.0,STARLINK-3285,PAYLOAD,2023-07-15 10:32:46,15.08841825,9.11e-05,53.217,275.7782,83.1214,276.9882,0.00013014,1.784e-05,0.0,0 STARLINK-3285,1 50181U 21125AB  23196.43943215  .00001784  00000-0  13014-3 0  9990,2 50181  53.2170 275.7782 0000911  83.1214 276.9882 15.08841825 89947,6917.875,95.437,540.37,539.11,0.0
50181.0,STARLINK-3285,PAYLOAD,2023-07-16 04:02:02,15.08829758,8.56e-05,53.2173,272.5065,77.556,282.5528,-7.0682e-07,-2.99e-06,0.0,0 STARLINK-3285,1 50181U 21125AB  23197.16808520 -.00000299  00000-0 -70682-6 0  9999,2 50181  53.2173 272.5065 0000856  77.5560 282.5528 15.08829758 90053,6917.912,95.438,540.369,539.185,0.0
50181.0,STARLINK-3285,PAYLOAD,2023-07-17 11:49:44,15.08847976,8.23e-05,53.2172,266.559,89.8084,270.3002,8.5469e-05,1.073e-05,0.0,0 STARLINK-3285,1 50181U 21125AB  23198.49287408  .00001073  00000-0  85469-4 0  9998,2 50181  53.2172 266.5590 0000823  89.8084 270.3002 15.08847976 90255,6917.856,95.437,540.29,539.152,0.0
50181.0,STARLINK-3285,PAYLOAD,2023-07-18 11:40:31,15.08838816,6.8e-05,53.2178,262.0999,71.4701,288.6365,0.00016732,2.376e-05,0.0,0 STARLINK-3285,1 50181U 21125AB  23199.48648041  .00002376  00000-0  16732-3 0  9995,2 50181  53.2178 262.0999 0000680  71.4701 288.6365 15.08838816 90403,6917.884,95.438,540.219,539.279,0.0
50181.0,STARLINK-3285,PAYLOAD,2023-07-19 09:55:56,15.08836697,0.0001013,53.2177,257.936,75.0903,285.0202,-1.6551e-05,-5.51e-06,0.0,0 STARLINK-3285,1 50181U 21125AB  23200.41384841 -.00000551  00000-0 -16551-4 0  9991,2 50181  53.2177 257.9360 0001013  75.0903 285.0202 15.08836697 90543,6917.89,95.438,540.456,539.055,0.0
50181.0,STARLINK-3285,PAYLOAD,2023-07-21 03:15:57,15.08841141,0.0001008,53.2168,250.2032,80.6692,279.4414,0.00012995,1.781e-05,0.0,0 STARLINK-3285,1 50181U 21125AB  23202.13608404  .00001781  00000-0  12995-3 0  9997,2 50181  53.2168 250.2032 0001008  80.6692 279.4414 15.08841141 90807,6917.877,95.437,540.439,539.045,0.0
50181.0,STARLINK-3285,PAYLOAD,2023-07-24 12:20:38,15.08836305,0.0001189,53.2172,235.0386,99.0334,261.0793,3.7909e-05,3.15e-06,0.0,0 STARLINK-3285,1 50181U 21125AB  23205.51432950  .00000315  00000-0  37909-4 0  9998,2 50181  53.2172 235.0386 0001189  99.0334 261.0793 15.08836305 91806,6917.892,95.438,540.579,538.934,0.0
50181.0,STARLINK-3285,PAYLOAD,2023-07-25 09:00:38,15.08837407,9.23e-05,53.2162,231.1718,90.4368,269.673,0.0001021,1.337e-05,0.0,0 STARLINK-3285,1 50181U 21125AB  23206.37544919  .00001337  00000-0  10210-3 0  9992,2 50181  53.2162 231.1718 0000923  90.4368 269.6730 15.08837407 91931,6917.888,95.438,540.392,539.115,0.0
50181.0,STARLINK-3285,PAYLOAD,2023-07-26 02:29:53,15.08839045,9.41e-05,53.216,227.9003,92.0441,268.0658,5.4155e-05,5.74e-06,0.0,0 STARLINK-3285,1 50181U 21125AB  23207.10409052  .00000574  00000-0  54155-4 0  9991,2 50181  53.2160 227.9003 0000941  92.0441 268.0658 15.08839045 92044,6917.883,95.438,540.399,539.097,0.0
50181.0,STARLINK-3285,PAYLOAD,2023-07-26 08:51:25,15.08841691,9.31e-05,53.2158,226.7106,91.0036,269.1063,7.0336e-05,8.32e-06,0.0,0 STARLINK-3285,1 50181U 21125AB  23207.36904860  .00000832  00000-0  70336-4 0  9992,2 50181  53.2158 226.7106 0000931  91.0036 269.1063 15.08841691 92086,6917.875,95.437,540.384,539.096,0.0
50181.0,STARLINK-3285,PAYLOAD,2023-07-27 07:06:49,15.08841594,9.16e-05,53.2157,222.5472,91.7071,268.4026,6.6283e-05,7.67e-06,0.0,0 STARLINK-3285,1 50181U 21125AB  23208.29640823  .00000767  00000-0  66283-4 0  9994,2 50181  53.2157 222.5472 0000916  91.7071 268.4026 15.08841594 91738,6917.876,95.437,540.374,539.107,0.0
50181.0,STARLINK-3285,PAYLOAD,2023-07-28 06:57:37,15.08835411,8.76e-05,53.2153,218.0862,89.2617,270.8476,-1.85e-07,-2.91e-06,0.0,0 STARLINK-3285,1 50181U 21125AB  23209.29001481 -.00000291  00000-0 -18500-6 0  9991,2 50181  53.2153 218.0862 0000876  89.2617 270.8476 15.08835411 91883,6917.894,95.438,540.365,539.153,0.0
50181.0,STARLINK-3285,PAYLOAD,2023-07-29 06:48:24,15.08841664,0.0001,53.2158,213.6261,83.3743,276.7363,4.1577e-05,3.74e-06,0.0,0 STARLINK-3285,1 50181U 21125AB  23210.28361114  .00000374  00000-0  41577-4 0  9992,2 50181  53.2158 213.6261 0001000  83.3743 276.7363 15.08841664 92032,6917.875,95.437,540.432,539.049,0.0
50181.0,STARLINK-3285,PAYLOAD,2023-07-31 00:08:24,15.08849895,0.0001046,53.216,205.8944,81.7562,278.3548,0.00011595,1.559e-05,0.0,0 STARLINK-3285,1 50181U 21125AB  23212.00584045  .00001559  00000-0  11595-3 0  9996,2 50181  53.2160 205.8944 0001046  81.7562 278.3548 15.08849895 92292,6917.85,95.437,540.439,538.992,0.0
50181.0,STARLINK-3285,PAYLOAD,2023-07-31 09:40:44,15.08838728,0.0001111,53.2165,204.1109,84.1058,276.0061,1.7649e-05,-7e-08,0.0,0 STARLINK-3285,1 50181U 21125AB  23212.40329320 -.00000007  00000-0  17649-4 0  9998,2 50181  53.2165 204.1109 0001111  84.1058 276.0061 15.08838728 92357,6917.884,95.438,540.518,538.981,0.0
50181.0,STARLINK-3285,PAYLOAD,2023-08-01 15:53:04,15.08835922,0.0001072,53.2162,198.4615,86.8803,273.2311,1.2142e-05,-9.5e-07,0.0,0 STARLINK-3285,1 50181U 21125AB  23213.66185555 -.00000095  00000-0  12142-4 0  9997,2 50181  53.2162 198.4615 0001072  86.8803 273.2311 15.08835922 92545,6917.893,95.438,540.499,539.016,0.0
50181.0,STARLINK-3285,PAYLOAD,2023-08-03 02:51:33,15.08840205,0.0001075,53.2159,191.9198,93.0527,267.0589,6.8457e-05,8.02e-06,0.0,0 STARLINK-3285,1 50181U 21125AB  23215.11913498  .00000802  00000-0  68457-4 0  9999,2 50181  53.2159 191.9198 0001075  93.0527 267.0589 15.08840205 92763,6917.88,95.438,540.488,539.001,0.0
50181.0,STARLINK-3285,PAYLOAD,2023-08-03 15:34:39,15.08825346,0.0001223,53.2162,189.5385,89.1151,270.9981,0.00017001,2.418e-05,0.0,0 STARLINK-3285,1 50181U 21125AB  23215.64906395  .00002418  00000-0  17001-3 0  9998,2 50181  53.2162 189.5385 0001223  89.1151 270.9981 15.08825346 92849,6917.925,95.438,540.636,538.944,0.0
50181.0,STARLINK-3285,PAYLOAD,2023-08-04 15:25:25,15.08838901,9.18e-05,53.2159,185.0791,111.8821,248.2269,1.2216e-05,-9.3e-07,0.0,0 STARLINK-3285,1 50181U 21125AB  23216.64266064 -.00000093  00000-0  12216-4 0  9993,2 50181  53.2159 185.0791 0000918 111.8821 248.2269 15.08838901 92998,6917.884,95.438,540.384,539.114,0.0
50181.0,STARLINK-3285,PAYLOAD,2023-08-05 07:19:16,15.08849606,0.0001251,53.216,182.1045,95.1488,264.9647,7.0461e-05,8.34e-06,0.0,0 STARLINK-3285,1 50181U 21125AB  23217.30505368  .00000834  00000-0  70461-4 0  9998,2 50181  53.2160 182.1045 0001251  95.1488 264.9647 15.08849606 93095,6917.851,95.437,540.581,538.851,0.0
50181.0,STARLINK-3285,PAYLOAD,2023-08-06 03:59:18,15.08835543,0.0001046,53.2158,178.2391,88.73,271.3812,5.0301e-05,5.13e-06,0.0,0 STARLINK-3285,1 50181U 21125AB  23218.16618539  .00000513  00000-0  50301-4 0  9993,2 50181  53.2158 178.2391 0001046  88.7300 271.3812 15.08835543 93221,6917.894,95.438,540.483,539.035,0.0
50181.0,STARLINK-3285,PAYLOAD,2023-08-07 03:50:09,15.08796753,0.0001146,53.2152,173.7777,84.7214,275.3909,-0.000354,-5.91e-05,0.0,0 STARLINK-3285,1 50181U 21125AB  23219.15982790 -.00005910  00000-0 -35400-3 0  9996,2 50181  53.2152 173.7777 0001146  84.7214 275.3909 15.08796753 93370,6918.013,95.44,540.67,539.085,0.0
50181.0,STARLINK-3285,PAYLOAD,2023-08-07 07:00:52,15.08836428,0.000102,53.2165,173.1841,87.7621,272.3487,-7.5816e-05,-1.494e-05,0.0,0 STARLINK-3285,1 50181U 21125AB  23219.29227688 -.00001494  00000-0 -75816-4 0  9998,2 50181  53.2165 173.1841 0001020  87.7621 272.3487 15.08836428 93390,6917.891,95.438,540.462,539.051,0.0
50181.0,STARLINK-3285,PAYLOAD,2023-08-08 05:16:15,15.0885281,0.0001382,53.2171,169.0225,80.3155,279.7993,0.00022823,3.347e-05,0.0,0 STARLINK-3285,1 50181U 21125AB  23220.21961966  .00003347  00000-0  22823-3 0  9992,2 50181  53.2171 169.0225 0001382  80.3155 279.7993 15.08852810 93531,6917.841,95.437,540.662,538.75,0.0
50181.0,STARLINK-3285,PAYLOAD,2023-08-08 13:13:11,15.08847472,0.0001275,53.2166,167.5348,81.58,278.5337,0.00014121,1.961e-05,0.0,0 STARLINK-3285,1 50181U 21125AB  23220.55082378  .00001961  00000-0  14121-3 0  9992,2 50181  53.2166 167.5348 0001275  81.5800 278.5337 15.08847472 93587,6917.858,95.437,540.605,538.841,0.0
50181.0,STARLINK-3285,PAYLOAD,2023-08-09 03:31:39,15.08826637,0.0001451,53.2176,164.8618,97.2041,262.9116,0.00043617,6.658e-05,0.0,0 STARLINK-3285,1 50181U 21125AB  23221.14698975  .00006658  00000-0  43617-3 0  9994,2 50181  53.2176 164.8618 0001451  97.2041 262.9116 15.08826637 93677,6917.921,95.438,540.79,538.782,0.0
